{
  "type": "FeatureCollection",
  "features": [
    {
      "type": "Feature",
      "properties": {
        "codigo": "RUTA_001",
        "nivel": "cuadrante",
        "tipo_cuadrante": "RUTA",
        "id_ruta": "001"
      },
      "geometry": {
        "type": "Polygon",
        "coordinates": [[
          [-74.1, 4.6],
          [-74.05, 4.6],
          [-74.05, 4.65],
          [-74.1, 4.65],
          [-74.1, 4.6]
        ]]
      }
    },
    {
      "type": "Feature", 
      "properties": {
        "codigo": "RUTA_001_A",
        "nivel": "subcuadrante",
        "parent_codigo": "RUTA_001",
        "id_ruta": "001"
      },
      "geometry": {
        "type": "Polygon",
        "coordinates": [[
          [-74.1, 4.6],
          [-74.075, 4.6],
          [-74.075, 4.625],
          [-74.1, 4.625],
          [-74.1, 4.6]
        ]]
      }
    },
    {
      "type": "Feature",
      "properties": {
        "codigo": "RUTA_001_B", 
        "nivel": "subcuadrante",
        "parent_codigo": "RUTA_001",
        "id_ruta": "001"
      },
      "geometry": {
        "type": "Polygon",
        "coordinates": [[
          [-74.075, 4.6],
          [-74.05, 4.6], 
          [-74.05, 4.625],
          [-74.075, 4.625],
          [-74.075, 4.6]
        ]]
      }
    },
    {
      "type": "Feature",
      "properties": {
        "codigo": "RUTA_002",
        "nivel": "cuadrante", 
        "tipo_cuadrante": "RUTA",
        "id_ruta": "002"
      },
      "geometry": {
        "type": "Polygon",
        "coordinates": [[
          [-74.05, 4.6],
          [-74.0, 4.6],
          [-74.0, 4.65], 
          [-74.05, 4.65],
          [-74.05, 4.6]
        ]]
      }
    },
    {
      "type": "Feature",
      "properties": {
        "codigo": "RUTA_002_A",
        "nivel": "subcuadrante",
        "parent_codigo": "RUTA_002", 
        "id_ruta": "002"
      },
      "geometry": {
        "type": "Polygon",
        "coordinates": [[
          [-74.05, 4.625],
          [-74.025, 4.625],
          [-74.025, 4.65],
          [-74.05, 4.65],
          [-74.05, 4.625]
        ]]
      }
    }
  ]
}