{
  "type": "FeatureCollection",
  "properties": {
    "type": "visible_layers_export",
    "city": "CALI",
    "total_features": 34,
    "export_timestamp": "2025-10-24T04:19:52.009Z",
    "editor_version": "3.1",
    "export_source": "Visible Layers Only"
  },
  "features": [
    {
      "type": "Feature",
      "geometry": {
        "type": "Polygon",
        "coordinates": [
          [
            [
              -76.494423,
              3.501336
            ],
            [
              -76.495045,
              3.500629
            ],
            [
              -76.496059,
              3.498857
            ],
            [
              -76.49725,
              3.496785
            ],
            [
              -76.498436,
              3.494724
            ],
            [
              -76.498908,
              3.49369
            ],
            [
              -76.500764,
              3.491018
            ],
            [
              -76.501697,
              3.489498
            ],
            [
              -76.502373,
              3.488427
            ],
            [
              -76.501375,
              3.488063
            ],
            [
              -76.499358,
              3.487516
            ],
            [
              -76.496199,
              3.4921
            ],
            [
              -76.495373,
              3.493256
            ],
            [
              -76.494246,
              3.495275
            ],
            [
              -76.493205,
              3.497122
            ],
            [
              -76.49209,
              3.499087
            ],
            [
              -76.492674,
              3.500581
            ],
            [
              -76.493651,
              3.50117
            ],
            [
              -76.494423,
              3.501336
            ]
          ]
        ]
      },
      "properties": {
        "nivel": "cuadrante",
        "codigo": "CL_001",
        "ciudad": "CALI",
        "id_ruta": "1",
        "tipo": "PADRE",
        "tipo_cuadrante": "PAP",
        "fillColor": "#27AE60",
        "fillOpacity": 0.35,
        "weight": 2,
        "color": "#000000",
        "ruta_publica": "Ruta 1",
        "old_codigo": "CL_001"
      }
    },
    {
      "type": "Feature",
      "geometry": {
        "type": "Polygon",
        "coordinates": [
          [
            [
              -76.492057,
              3.499087
            ],
            [
              -76.48636,
              3.496051
            ],
            [
              -76.485041,
              3.494359
            ],
            [
              -76.484445,
              3.492775
            ],
            [
              -76.485363,
              3.492571
            ],
            [
              -76.486033,
              3.492309
            ],
            [
              -76.487101,
              3.492003
            ],
            [
              -76.488554,
              3.491773
            ],
            [
              -76.489837,
              3.491564
            ],
            [
              -76.490802,
              3.491398
            ],
            [
              -76.492106,
              3.490681
            ],
            [
              -76.493779,
              3.488727
            ],
            [
              -76.494734,
              3.487409
            ],
            [
              -76.497513,
              3.488566
            ],
            [
              -76.498168,
              3.48908
            ],
            [
              -76.496719,
              3.491291
            ],
            [
              -76.495636,
              3.490729
            ],
            [
              -76.494632,
              3.492689
            ],
            [
              -76.495426,
              3.493171
            ],
            [
              -76.493973,
              3.495752
            ],
            [
              -76.492057,
              3.499087
            ]
          ]
        ]
      },
      "properties": {
        "nivel": "cuadrante",
        "codigo": "CL_002",
        "ciudad": "CALI",
        "id_ruta": "1",
        "tipo": "PADRE",
        "tipo_cuadrante": "PAP",
        "fillColor": "#636EFA",
        "fillOpacity": 0.35,
        "weight": 2,
        "color": "#000000",
        "ruta_publica": "Ruta 1",
        "old_codigo": "CL_003"
      }
    },
    {
      "type": "Feature",
      "geometry": {
        "type": "Polygon",
        "coordinates": [
          [
            [
              -76.506686,
              3.493042
            ],
            [
              -76.504669,
              3.492464
            ],
            [
              -76.504573,
              3.492914
            ],
            [
              -76.504015,
              3.492903
            ],
            [
              -76.503414,
              3.493455
            ],
            [
              -76.502609,
              3.494483
            ],
            [
              -76.503001,
              3.495452
            ],
            [
              -76.502636,
              3.495655
            ],
            [
              -76.502379,
              3.496084
            ],
            [
              -76.500844,
              3.496705
            ],
            [
              -76.499262,
              3.495313
            ],
            [
              -76.501005,
              3.493064
            ],
            [
              -76.502577,
              3.490665
            ],
            [
              -76.502776,
              3.49074
            ],
            [
              -76.50328,
              3.491238
            ],
            [
              -76.503489,
              3.49105
            ],
            [
              -76.503886,
              3.491441
            ],
            [
              -76.504256,
              3.491141
            ],
            [
              -76.504996,
              3.491345
            ],
            [
              -76.505849,
              3.490542
            ],
            [
              -76.507308,
              3.491013
            ],
            [
              -76.506686,
              3.493042
            ]
          ]
        ]
      },
      "properties": {
        "nivel": "cuadrante",
        "codigo": "CL_003",
        "ciudad": "CALI",
        "id_ruta": "1",
        "tipo": "PADRE",
        "tipo_cuadrante": "RUTA",
        "fillColor": "#E67E22",
        "fillOpacity": 0.35,
        "weight": 2,
        "color": "#000000",
        "ruta_publica": "Ruta 1",
        "old_codigo": "CL_002"
      }
    },
    {
      "type": "Feature",
      "geometry": {
        "type": "Polygon",
        "coordinates": [
          [
            [
              -76.521116,
              3.471099
            ],
            [
              -76.521707,
              3.470757
            ],
            [
              -76.522356,
              3.469761
            ],
            [
              -76.522742,
              3.468636
            ],
            [
              -76.524094,
              3.471737
            ],
            [
              -76.523879,
              3.475239
            ],
            [
              -76.523053,
              3.477584
            ],
            [
              -76.522002,
              3.480432
            ],
            [
              -76.520548,
              3.484459
            ],
            [
              -76.519561,
              3.487249
            ],
            [
              -76.518901,
              3.488967
            ],
            [
              -76.517673,
              3.488373
            ],
            [
              -76.517308,
              3.488148
            ],
            [
              -76.516986,
              3.488555
            ],
            [
              -76.516986,
              3.489198
            ],
            [
              -76.517383,
              3.489208
            ],
            [
              -76.517394,
              3.49007
            ],
            [
              -76.518397,
              3.49006
            ],
            [
              -76.517458,
              3.492758
            ],
            [
              -76.512437,
              3.491168
            ],
            [
              -76.510994,
              3.490483
            ],
            [
              -76.510677,
              3.490156
            ],
            [
              -76.510597,
              3.489567
            ],
            [
              -76.51359,
              3.484416
            ],
            [
              -76.513789,
              3.483913
            ],
            [
              -76.515344,
              3.481
            ],
            [
              -76.5172,
              3.478205
            ],
            [
              -76.51903,
              3.474864
            ],
            [
              -76.521009,
              3.47164
            ],
            [
              -76.521116,
              3.471099
            ]
          ]
        ]
      },
      "properties": {
        "nivel": "cuadrante",
        "codigo": "CL_004",
        "ciudad": "CALI",
        "id_ruta": "1",
        "tipo": "PADRE",
        "tipo_cuadrante": "PAP",
        "fillColor": "#B6E880",
        "fillOpacity": 0.35,
        "weight": 2,
        "color": "#000000",
        "ruta_publica": "Ruta 1",
        "old_codigo": "CL_006"
      }
    },
    {
      "type": "Feature",
      "geometry": {
        "type": "Polygon",
        "coordinates": [
          [
            [
              -76.491644,
              3.490129
            ],
            [
              -76.489123,
              3.485642
            ],
            [
              -76.490625,
              3.484507
            ],
            [
              -76.489617,
              3.483147
            ],
            [
              -76.48864,
              3.480266
            ],
            [
              -76.487439,
              3.476486
            ],
            [
              -76.484628,
              3.468058
            ],
            [
              -76.480207,
              3.469343
            ],
            [
              -76.481141,
              3.471796
            ],
            [
              -76.483297,
              3.477675
            ],
            [
              -76.484349,
              3.481252
            ],
            [
              -76.487675,
              3.490676
            ],
            [
              -76.488469,
              3.491575
            ],
            [
              -76.489896,
              3.491265
            ],
            [
              -76.491483,
              3.490301
            ],
            [
              -76.491644,
              3.490129
            ]
          ]
        ]
      },
      "properties": {
        "nivel": "cuadrante",
        "codigo": "CL_005",
        "ciudad": "CALI",
        "id_ruta": "1",
        "tipo": "PADRE",
        "tipo_cuadrante": "PAP",
        "fillColor": "#EF553B",
        "fillOpacity": 0.35,
        "weight": 2,
        "color": "#000000",
        "ruta_publica": "Ruta 1",
        "old_codigo": "CL_007"
      }
    },
    {
      "type": "Feature",
      "geometry": {
        "type": "Polygon",
        "coordinates": [
          [
            [
              -76.503317,
              3.488416
            ],
            [
              -76.498661,
              3.48681
            ],
            [
              -76.499321,
              3.484571
            ],
            [
              -76.500185,
              3.481937
            ],
            [
              -76.501901,
              3.483083
            ],
            [
              -76.504744,
              3.47987
            ],
            [
              -76.506643,
              3.481616
            ],
            [
              -76.503543,
              3.484004
            ],
            [
              -76.503328,
              3.487955
            ],
            [
              -76.503317,
              3.488416
            ]
          ]
        ]
      },
      "properties": {
        "nivel": "cuadrante",
        "codigo": "CL_006",
        "ciudad": "CALI",
        "id_ruta": "1",
        "tipo": "PADRE",
        "tipo_cuadrante": "PAP",
        "fillColor": "#FFA15A",
        "fillOpacity": 0.35,
        "weight": 2,
        "color": "#000000",
        "ruta_publica": "Ruta 1",
        "old_codigo": "CL_005"
      }
    },
    {
      "type": "Feature",
      "geometry": {
        "type": "Polygon",
        "coordinates": [
          [
            [
              -76.508446,
              3.487436
            ],
            [
              -76.509245,
              3.486087
            ],
            [
              -76.510828,
              3.48697
            ],
            [
              -76.511868,
              3.485235
            ],
            [
              -76.507786,
              3.482799
            ],
            [
              -76.506718,
              3.483174
            ],
            [
              -76.505672,
              3.483907
            ],
            [
              -76.504937,
              3.484919
            ],
            [
              -76.504648,
              3.48583
            ],
            [
              -76.506364,
              3.48681
            ],
            [
              -76.506477,
              3.486585
            ],
            [
              -76.508285,
              3.487629
            ],
            [
              -76.508446,
              3.487436
            ]
          ]
        ]
      },
      "properties": {
        "nivel": "cuadrante",
        "codigo": "CL_007",
        "ciudad": "CALI",
        "id_ruta": "1",
        "tipo": "PADRE",
        "tipo_cuadrante": "RUTA",
        "fillColor": "#FF6692",
        "fillOpacity": 0.35,
        "weight": 2,
        "color": "#000000",
        "ruta_publica": "Ruta 1",
        "old_codigo": "CL_004"
      }
    },
    {
      "type": "Feature",
      "geometry": {
        "type": "Polygon",
        "coordinates": [
          [
            [
              -76.512437,
              3.485525
            ],
            [
              -76.516685,
              3.478917
            ],
            [
              -76.519196,
              3.474484
            ],
            [
              -76.520934,
              3.471678
            ],
            [
              -76.521009,
              3.471089
            ],
            [
              -76.521782,
              3.470521
            ],
            [
              -76.522865,
              3.468261
            ],
            [
              -76.521449,
              3.462918
            ],
            [
              -76.520838,
              3.46295
            ],
            [
              -76.520462,
              3.463217
            ],
            [
              -76.518949,
              3.466559
            ],
            [
              -76.518263,
              3.468925
            ],
            [
              -76.517082,
              3.470971
            ],
            [
              -76.514432,
              3.474783
            ],
            [
              -76.509846,
              3.481193
            ],
            [
              -76.507786,
              3.48281
            ],
            [
              -76.512432,
              3.485589
            ],
            [
              -76.512437,
              3.485525
            ]
          ]
        ]
      },
      "properties": {
        "nivel": "cuadrante",
        "codigo": "CL_008",
        "ciudad": "CALI",
        "id_ruta": "1",
        "tipo": "PADRE",
        "tipo_cuadrante": "PAP",
        "fillColor": "#FF97FF",
        "fillOpacity": 0.35,
        "weight": 2,
        "color": "#000000",
        "ruta_publica": "Ruta 1",
        "old_codigo": "CL_008"
      }
    },
    {
      "type": "Feature",
      "geometry": {
        "type": "Polygon",
        "coordinates": [
          [
            [
              -76.492959,
              3.480968
            ],
            [
              -76.491247,
              3.479495
            ],
            [
              -76.490711,
              3.479967
            ],
            [
              -76.490169,
              3.479485
            ],
            [
              -76.489965,
              3.479088
            ],
            [
              -76.490625,
              3.478767
            ],
            [
              -76.489407,
              3.477616
            ],
            [
              -76.488801,
              3.476636
            ],
            [
              -76.488978,
              3.476127
            ],
            [
              -76.493205,
              3.474826
            ],
            [
              -76.49231,
              3.471324
            ],
            [
              -76.490598,
              3.465777
            ],
            [
              -76.490121,
              3.464058
            ],
            [
              -76.490051,
              3.463871
            ],
            [
              -76.485529,
              3.465274
            ],
            [
              -76.484794,
              3.465541
            ],
            [
              -76.485406,
              3.467239
            ],
            [
              -76.485899,
              3.46884
            ],
            [
              -76.486714,
              3.468599
            ],
            [
              -76.487101,
              3.46983
            ],
            [
              -76.487149,
              3.469948
            ],
            [
              -76.486307,
              3.47013
            ],
            [
              -76.48702,
              3.472615
            ],
            [
              -76.48812,
              3.476159
            ],
            [
              -76.489187,
              3.479629
            ],
            [
              -76.490089,
              3.482483
            ],
            [
              -76.490121,
              3.482569
            ],
            [
              -76.493039,
              3.481032
            ],
            [
              -76.492959,
              3.480968
            ]
          ]
        ]
      },
      "properties": {
        "nivel": "cuadrante",
        "codigo": "CL_009",
        "ciudad": "CALI",
        "id_ruta": "1",
        "tipo": "PADRE",
        "tipo_cuadrante": "PAP",
        "fillColor": "#00CC96",
        "fillOpacity": 0.35,
        "weight": 2,
        "color": "#000000",
        "ruta_publica": "Ruta 1",
        "old_codigo": "CL_009"
      }
    },
    {
      "type": "Feature",
      "geometry": {
        "type": "Polygon",
        "coordinates": [
          [
            [
              -76.509122,
              3.480813
            ],
            [
              -76.511385,
              3.477257
            ],
            [
              -76.51352,
              3.474419
            ],
            [
              -76.517377,
              3.468427
            ],
            [
              -76.519357,
              3.464031
            ],
            [
              -76.518257,
              3.462077
            ],
            [
              -76.515189,
              3.464272
            ],
            [
              -76.514824,
              3.464947
            ],
            [
              -76.515908,
              3.466286
            ],
            [
              -76.51579,
              3.466393
            ],
            [
              -76.514642,
              3.46642
            ],
            [
              -76.514352,
              3.466703
            ],
            [
              -76.513612,
              3.465964
            ],
            [
              -76.510457,
              3.470259
            ],
            [
              -76.506397,
              3.474184
            ],
            [
              -76.505334,
              3.475442
            ],
            [
              -76.506429,
              3.476459
            ],
            [
              -76.505554,
              3.477439
            ],
            [
              -76.508955,
              3.480813
            ],
            [
              -76.509068,
              3.480941
            ],
            [
              -76.509122,
              3.480813
            ]
          ]
        ]
      },
      "properties": {
        "nivel": "cuadrante",
        "codigo": "CL_010",
        "ciudad": "CALI",
        "id_ruta": "1",
        "tipo": "PADRE",
        "tipo_cuadrante": "PAP",
        "fillColor": "#19D3F3",
        "fillOpacity": 0.35,
        "weight": 2,
        "color": "#000000",
        "ruta_publica": "Ruta 1",
        "old_codigo": "CL_011"
      }
    },
    {
      "type": "Feature",
      "geometry": {
        "type": "Polygon",
        "coordinates": [
          [
            [
              -76.498055,
              3.479019
            ],
            [
              -76.497052,
              3.479774
            ],
            [
              -76.495609,
              3.478601
            ],
            [
              -76.494541,
              3.477434
            ],
            [
              -76.493887,
              3.476234
            ],
            [
              -76.490727,
              3.465648
            ],
            [
              -76.494321,
              3.464722
            ],
            [
              -76.495335,
              3.467603
            ],
            [
              -76.496387,
              3.470998
            ],
            [
              -76.497111,
              3.473322
            ],
            [
              -76.49718,
              3.4736
            ],
            [
              -76.498098,
              3.476657
            ],
            [
              -76.49615,
              3.477241
            ],
            [
              -76.497497,
              3.47843
            ],
            [
              -76.498023,
              3.478955
            ],
            [
              -76.498055,
              3.479019
            ]
          ]
        ]
      },
      "properties": {
        "nivel": "cuadrante",
        "codigo": "CL_011",
        "ciudad": "CALI",
        "id_ruta": "1",
        "tipo": "PADRE",
        "tipo_cuadrante": "PAP",
        "fillColor": "#AB63FA",
        "fillOpacity": 0.35,
        "weight": 2,
        "color": "#000000",
        "ruta_publica": "Ruta 1",
        "old_codigo": "CL_010"
      }
    },
    {
      "type": "Feature",
      "geometry": {
        "type": "Polygon",
        "coordinates": [
          [
            [
              -76.499777,
              3.466195
            ],
            [
              -76.498071,
              3.466698
            ],
            [
              -76.498715,
              3.469129
            ],
            [
              -76.499745,
              3.472856
            ],
            [
              -76.49806,
              3.473268
            ],
            [
              -76.498484,
              3.474703
            ],
            [
              -76.499841,
              3.474339
            ],
            [
              -76.50071,
              3.47723
            ],
            [
              -76.499079,
              3.478403
            ],
            [
              -76.497545,
              3.476861
            ],
            [
              -76.498092,
              3.476679
            ],
            [
              -76.497631,
              3.475003
            ],
            [
              -76.497175,
              3.473493
            ],
            [
              -76.497003,
              3.472941
            ],
            [
              -76.497985,
              3.472668
            ],
            [
              -76.497465,
              3.47066
            ],
            [
              -76.497245,
              3.47065
            ],
            [
              -76.497105,
              3.470023
            ],
            [
              -76.497046,
              3.469798
            ],
            [
              -76.496124,
              3.470061
            ],
            [
              -76.494337,
              3.464727
            ],
            [
              -76.498967,
              3.463405
            ],
            [
              -76.500442,
              3.462982
            ],
            [
              -76.500775,
              3.464246
            ],
            [
              -76.499348,
              3.464695
            ],
            [
              -76.499777,
              3.466195
            ]
          ]
        ]
      },
      "properties": {
        "nivel": "cuadrante",
        "codigo": "CL_012",
        "ciudad": "CALI",
        "id_ruta": "1",
        "tipo": "PADRE",
        "tipo_cuadrante": "PAP",
        "fillColor": "#FFA15A",
        "fillOpacity": 0.35,
        "weight": 2,
        "color": "#000000",
        "ruta_publica": "Ruta 1",
        "old_codigo": "CL_012"
      }
    },
    {
      "type": "Feature",
      "geometry": {
        "type": "Polygon",
        "coordinates": [
          [
            [
              -76.50365,
              3.474869
            ],
            [
              -76.500319,
              3.475924
            ],
            [
              -76.499841,
              3.474344
            ],
            [
              -76.499745,
              3.47284
            ],
            [
              -76.498693,
              3.46907
            ],
            [
              -76.501713,
              3.468122
            ],
            [
              -76.50174,
              3.467978
            ],
            [
              -76.501215,
              3.46567
            ],
            [
              -76.503028,
              3.464952
            ],
            [
              -76.502545,
              3.463774
            ],
            [
              -76.501161,
              3.464181
            ],
            [
              -76.500871,
              3.462832
            ],
            [
              -76.507051,
              3.460947
            ],
            [
              -76.508446,
              3.466334
            ],
            [
              -76.509336,
              3.469247
            ],
            [
              -76.509486,
              3.469568
            ],
            [
              -76.509165,
              3.469804
            ],
            [
              -76.508296,
              3.470125
            ],
            [
              -76.503103,
              3.471678
            ],
            [
              -76.50395,
              3.474762
            ],
            [
              -76.50365,
              3.474869
            ]
          ]
        ]
      },
      "properties": {
        "nivel": "cuadrante",
        "codigo": "CL_013",
        "ciudad": "CALI",
        "id_ruta": "1",
        "tipo": "PADRE",
        "tipo_cuadrante": "PAP",
        "fillColor": "#19D3F3",
        "fillOpacity": 0.35,
        "weight": 2,
        "color": "#000000",
        "ruta_publica": "Ruta 1",
        "old_codigo": "CL_013"
      }
    },
    {
      "type": "Feature",
      "geometry": {
        "type": "Polygon",
        "coordinates": [
          [
            [
              -76.520258,
              3.460894
            ],
            [
              -76.518155,
              3.453686
            ],
            [
              -76.517447,
              3.45375
            ],
            [
              -76.516364,
              3.4554
            ],
            [
              -76.506536,
              3.458559
            ],
            [
              -76.508467,
              3.466259
            ],
            [
              -76.510538,
              3.465284
            ],
            [
              -76.511074,
              3.46718
            ],
            [
              -76.511858,
              3.467887
            ],
            [
              -76.513456,
              3.465745
            ],
            [
              -76.512222,
              3.464331
            ],
            [
              -76.51337,
              3.463689
            ],
            [
              -76.513789,
              3.464267
            ],
            [
              -76.514271,
              3.463989
            ],
            [
              -76.514615,
              3.464556
            ],
            [
              -76.514727,
              3.464604
            ],
            [
              -76.51572,
              3.463887
            ],
            [
              -76.518241,
              3.462066
            ],
            [
              -76.517431,
              3.460369
            ],
            [
              -76.51866,
              3.459823
            ],
            [
              -76.519448,
              3.461381
            ],
            [
              -76.520328,
              3.460969
            ],
            [
              -76.520258,
              3.460894
            ]
          ]
        ]
      },
      "properties": {
        "nivel": "cuadrante",
        "codigo": "CL_014",
        "ciudad": "CALI",
        "id_ruta": "1",
        "tipo": "PADRE",
        "tipo_cuadrante": "PAP",
        "fillColor": "#FF6692",
        "fillOpacity": 0.35,
        "weight": 2,
        "color": "#000000",
        "ruta_publica": "Ruta 1",
        "old_codigo": "CL_014"
      }
    },
    {
      "type": "Feature",
      "geometry": {
        "type": "Polygon",
        "coordinates": [
          [
            [
              -76.485379,
              3.467672
            ],
            [
              -76.481731,
              3.468765
            ],
            [
              -76.480229,
              3.469322
            ],
            [
              -76.479521,
              3.467116
            ],
            [
              -76.47922,
              3.466066
            ],
            [
              -76.480014,
              3.462639
            ],
            [
              -76.481001,
              3.457477
            ],
            [
              -76.481409,
              3.453879
            ],
            [
              -76.481516,
              3.451137
            ],
            [
              -76.48613,
              3.452412
            ],
            [
              -76.484832,
              3.455817
            ],
            [
              -76.483555,
              3.45918
            ],
            [
              -76.483512,
              3.460476
            ],
            [
              -76.484714,
              3.465445
            ],
            [
              -76.485379,
              3.467672
            ]
          ]
        ]
      },
      "properties": {
        "nivel": "cuadrante",
        "codigo": "CL_015",
        "ciudad": "CALI",
        "id_ruta": "1",
        "tipo": "PADRE",
        "tipo_cuadrante": "PAP",
        "fillColor": "#FECB52",
        "fillOpacity": 0.35,
        "weight": 2,
        "color": "#000000",
        "ruta_publica": "Ruta 1",
        "old_codigo": "CL_015"
      }
    },
    {
      "type": "Feature",
      "geometry": {
        "type": "Polygon",
        "coordinates": [
          [
            [
              -76.518316,
              3.453386
            ],
            [
              -76.512051,
              3.454318
            ],
            [
              -76.505184,
              3.453322
            ],
            [
              -76.502609,
              3.44333
            ],
            [
              -76.501579,
              3.440042
            ],
            [
              -76.510248,
              3.437044
            ],
            [
              -76.519389,
              3.435694
            ],
            [
              -76.518327,
              3.445258
            ],
            [
              -76.517962,
              3.450066
            ],
            [
              -76.51866,
              3.453333
            ],
            [
              -76.518316,
              3.453386
            ]
          ]
        ]
      },
      "properties": {
        "nivel": "cuadrante",
        "codigo": "CL_016",
        "ciudad": "CALI",
        "id_ruta": "1",
        "tipo": "PADRE",
        "tipo_cuadrante": "PAP",
        "fillColor": "#F46036",
        "fillOpacity": 0.35,
        "weight": 2,
        "color": "#000000",
        "ruta_publica": "Ruta 1",
        "old_codigo": "CL_018"
      }
    },
    {
      "type": "Feature",
      "geometry": {
        "type": "Polygon",
        "coordinates": [
          [
            [
              -76.490786,
              3.444091
            ],
            [
              -76.487846,
              3.449681
            ],
            [
              -76.48628,
              3.452294
            ],
            [
              -76.491403,
              3.452631
            ],
            [
              -76.491698,
              3.451389
            ],
            [
              -76.492878,
              3.451716
            ],
            [
              -76.492701,
              3.452551
            ],
            [
              -76.495598,
              3.452422
            ],
            [
              -76.4985,
              3.452578
            ],
            [
              -76.501617,
              3.452663
            ],
            [
              -76.504449,
              3.453119
            ],
            [
              -76.504626,
              3.452433
            ],
            [
              -76.504937,
              3.452412
            ],
            [
              -76.502582,
              3.443346
            ],
            [
              -76.501558,
              3.440406
            ],
            [
              -76.490786,
              3.444091
            ]
          ]
        ]
      },
      "properties": {
        "nivel": "cuadrante",
        "codigo": "CL_017",
        "ciudad": "CALI",
        "id_ruta": "1",
        "tipo": "PADRE",
        "tipo_cuadrante": "PAP",
        "fillColor": "#2E91E5",
        "fillOpacity": 0.35,
        "weight": 2,
        "color": "#000000",
        "ruta_publica": "Ruta 1",
        "old_codigo": "CL_016"
      }
    },
    {
      "type": "Feature",
      "geometry": {
        "type": "Polygon",
        "coordinates": [
          [
            [
              -76.542714,
              3.432867
            ],
            [
              -76.537886,
              3.438821
            ],
            [
              -76.539087,
              3.439828
            ],
            [
              -76.538776,
              3.440974
            ],
            [
              -76.537188,
              3.440267
            ],
            [
              -76.536802,
              3.442666
            ],
            [
              -76.536931,
              3.447207
            ],
            [
              -76.537703,
              3.449649
            ],
            [
              -76.537982,
              3.450484
            ],
            [
              -76.538476,
              3.450484
            ],
            [
              -76.539366,
              3.450334
            ],
            [
              -76.540214,
              3.450473
            ],
            [
              -76.541523,
              3.451266
            ],
            [
              -76.544387,
              3.450677
            ],
            [
              -76.544495,
              3.449563
            ],
            [
              -76.543894,
              3.448653
            ],
            [
              -76.542574,
              3.449028
            ],
            [
              -76.542456,
              3.448771
            ],
            [
              -76.543373,
              3.448444
            ],
            [
              -76.543255,
              3.447903
            ],
            [
              -76.542193,
              3.448085
            ],
            [
              -76.541786,
              3.448165
            ],
            [
              -76.540782,
              3.447576
            ],
            [
              -76.540466,
              3.447153
            ],
            [
              -76.540418,
              3.446789
            ],
            [
              -76.540471,
              3.446613
            ],
            [
              -76.542891,
              3.446784
            ],
            [
              -76.543132,
              3.444133
            ],
            [
              -76.544023,
              3.444444
            ],
            [
              -76.544243,
              3.444053
            ],
            [
              -76.544623,
              3.444117
            ],
            [
              -76.545112,
              3.444417
            ],
            [
              -76.545745,
              3.444096
            ],
            [
              -76.547456,
              3.444546
            ],
            [
              -76.547928,
              3.444428
            ],
            [
              -76.548266,
              3.444321
            ],
            [
              -76.548352,
              3.44424
            ],
            [
              -76.548319,
              3.44408
            ],
            [
              -76.548169,
              3.443892
            ],
            [
              -76.548019,
              3.4437
            ],
            [
              -76.547965,
              3.443555
            ],
            [
              -76.54818,
              3.443368
            ],
            [
              -76.548352,
              3.443293
            ],
            [
              -76.548427,
              3.443239
            ],
            [
              -76.546914,
              3.442639
            ],
            [
              -76.545863,
              3.441986
            ],
            [
              -76.545476,
              3.441558
            ],
            [
              -76.54487,
              3.441879
            ],
            [
              -76.544666,
              3.442677
            ],
            [
              -76.544645,
              3.442987
            ],
            [
              -76.543974,
              3.443212
            ],
            [
              -76.543277,
              3.443014
            ],
            [
              -76.543218,
              3.442361
            ],
            [
              -76.542301,
              3.442275
            ],
            [
              -76.54236,
              3.441595
            ],
            [
              -76.543395,
              3.441317
            ],
            [
              -76.54377,
              3.440862
            ],
            [
              -76.545289,
              3.440813
            ],
            [
              -76.546211,
              3.439614
            ],
            [
              -76.546319,
              3.439153
            ],
            [
              -76.545782,
              3.437751
            ],
            [
              -76.544795,
              3.43624
            ],
            [
              -76.544924,
              3.435244
            ],
            [
              -76.545975,
              3.435544
            ],
            [
              -76.546265,
              3.435748
            ],
            [
              -76.547016,
              3.435705
            ],
            [
              -76.547145,
              3.435244
            ],
            [
              -76.546479,
              3.434141
            ],
            [
              -76.547617,
              3.433081
            ],
            [
              -76.543829,
              3.431089
            ],
            [
              -76.542714,
              3.432867
            ]
          ]
        ]
      },
      "properties": {
        "nivel": "cuadrante",
        "codigo": "CL_018",
        "ciudad": "CALI",
        "id_ruta": "1",
        "tipo": "PADRE",
        "tipo_cuadrante": "PAP",
        "fillColor": "#BC5090",
        "fillOpacity": 0.35,
        "weight": 2,
        "color": "#000000",
        "ruta_publica": "Ruta 1",
        "old_codigo": "CL_017"
      }
    },
    {
      "type": "Feature",
      "geometry": {
        "type": "Polygon",
        "coordinates": [
          [
            [
              -76.537741,
              3.4388
            ],
            [
              -76.536523,
              3.440144
            ],
            [
              -76.536013,
              3.440615
            ],
            [
              -76.534678,
              3.441311
            ],
            [
              -76.533122,
              3.44204
            ],
            [
              -76.531346,
              3.442564
            ],
            [
              -76.529126,
              3.442709
            ],
            [
              -76.525993,
              3.442554
            ],
            [
              -76.525762,
              3.442356
            ],
            [
              -76.52131,
              3.443759
            ],
            [
              -76.518391,
              3.444701
            ],
            [
              -76.519454,
              3.435009
            ],
            [
              -76.520827,
              3.43518
            ],
            [
              -76.521921,
              3.435009
            ],
            [
              -76.528015,
              3.431817
            ],
            [
              -76.534302,
              3.433659
            ],
            [
              -76.538594,
              3.437783
            ],
            [
              -76.537741,
              3.4388
            ]
          ]
        ]
      },
      "properties": {
        "nivel": "cuadrante",
        "codigo": "CL_019",
        "ciudad": "CALI",
        "id_ruta": "1",
        "tipo": "PADRE",
        "tipo_cuadrante": "PAP",
        "fillColor": "#1CA71C",
        "fillOpacity": 0.35,
        "weight": 2,
        "color": "#000000",
        "ruta_publica": "Ruta 1",
        "old_codigo": "CL_019"
      }
    },
    {
      "type": "Feature",
      "geometry": {
        "type": "Polygon",
        "coordinates": [
          [
            [
              -76.519239,
              3.435935
            ],
            [
              -76.520864,
              3.421868
            ],
            [
              -76.52117,
              3.419137
            ],
            [
              -76.51793,
              3.41918
            ],
            [
              -76.514432,
              3.419416
            ],
            [
              -76.507888,
              3.419726
            ],
            [
              -76.502883,
              3.424637
            ],
            [
              -76.504455,
              3.426104
            ],
            [
              -76.50593,
              3.427362
            ],
            [
              -76.506386,
              3.428289
            ],
            [
              -76.507335,
              3.429574
            ],
            [
              -76.508381,
              3.4308
            ],
            [
              -76.509304,
              3.431759
            ],
            [
              -76.510001,
              3.431721
            ],
            [
              -76.510602,
              3.430479
            ],
            [
              -76.510946,
              3.43057
            ],
            [
              -76.512625,
              3.428776
            ],
            [
              -76.513869,
              3.428787
            ],
            [
              -76.513907,
              3.430008
            ],
            [
              -76.513885,
              3.430259
            ],
            [
              -76.513896,
              3.430532
            ],
            [
              -76.51307,
              3.430093
            ],
            [
              -76.512405,
              3.431705
            ],
            [
              -76.512421,
              3.432813
            ],
            [
              -76.512335,
              3.433156
            ],
            [
              -76.514127,
              3.434522
            ],
            [
              -76.515377,
              3.435507
            ],
            [
              -76.515859,
              3.433659
            ],
            [
              -76.516927,
              3.433922
            ],
            [
              -76.516466,
              3.435448
            ],
            [
              -76.516643,
              3.43548
            ],
            [
              -76.516659,
              3.435742
            ],
            [
              -76.516734,
              3.436246
            ],
            [
              -76.519239,
              3.435935
            ]
          ]
        ]
      },
      "properties": {
        "nivel": "cuadrante",
        "codigo": "CL_020",
        "ciudad": "CALI",
        "id_ruta": "1",
        "tipo": "PADRE",
        "tipo_cuadrante": "PAP",
        "fillColor": "#9A9A00",
        "fillOpacity": 0.35,
        "weight": 2,
        "color": "#000000",
        "ruta_publica": "Ruta 1",
        "old_codigo": "CL_021"
      }
    },
    {
      "type": "Feature",
      "geometry": {
        "type": "Polygon",
        "coordinates": [
          [
            [
              -76.519561,
              3.435009
            ],
            [
              -76.520237,
              3.428958
            ],
            [
              -76.521084,
              3.421536
            ],
            [
              -76.52131,
              3.419384
            ],
            [
              -76.527393,
              3.418302
            ],
            [
              -76.535246,
              3.420637
            ],
            [
              -76.534195,
              3.423721
            ],
            [
              -76.533422,
              3.426259
            ],
            [
              -76.533197,
              3.426227
            ],
            [
              -76.533058,
              3.42673
            ],
            [
              -76.532929,
              3.42718
            ],
            [
              -76.532757,
              3.42748
            ],
            [
              -76.532285,
              3.428069
            ],
            [
              -76.532006,
              3.428444
            ],
            [
              -76.531599,
              3.428701
            ],
            [
              -76.531191,
              3.428947
            ],
            [
              -76.529281,
              3.430307
            ],
            [
              -76.526932,
              3.431967
            ],
            [
              -76.524346,
              3.433649
            ],
            [
              -76.522329,
              3.434698
            ],
            [
              -76.521149,
              3.435073
            ],
            [
              -76.519561,
              3.435009
            ]
          ]
        ]
      },
      "properties": {
        "nivel": "cuadrante",
        "codigo": "CL_021",
        "ciudad": "CALI",
        "id_ruta": "1",
        "tipo": "PADRE",
        "tipo_cuadrante": "PAP",
        "fillColor": "#FF009D",
        "fillOpacity": 0.35,
        "weight": 2,
        "color": "#000000",
        "ruta_publica": "Ruta 1",
        "old_codigo": "CL_023"
      }
    },
    {
      "type": "Feature",
      "geometry": {
        "type": "Polygon",
        "coordinates": [
          [
            [
              -76.5434,
              3.430971
            ],
            [
              -76.545353,
              3.427459
            ],
            [
              -76.544484,
              3.425413
            ],
            [
              -76.54502,
              3.424353
            ],
            [
              -76.546415,
              3.42446
            ],
            [
              -76.548148,
              3.420053
            ],
            [
              -76.548153,
              3.418548
            ],
            [
              -76.544645,
              3.416995
            ],
            [
              -76.54421,
              3.416792
            ],
            [
              -76.545289,
              3.414564
            ],
            [
              -76.54178,
              3.411394
            ],
            [
              -76.538669,
              3.410398
            ],
            [
              -76.537017,
              3.415689
            ],
            [
              -76.535402,
              3.420958
            ],
            [
              -76.538293,
              3.421536
            ],
            [
              -76.538347,
              3.421724
            ],
            [
              -76.538143,
              3.422591
            ],
            [
              -76.538073,
              3.424337
            ],
            [
              -76.537735,
              3.425536
            ],
            [
              -76.537006,
              3.426762
            ],
            [
              -76.538883,
              3.428958
            ],
            [
              -76.540289,
              3.427512
            ],
            [
              -76.542392,
              3.430275
            ],
            [
              -76.5434,
              3.430971
            ]
          ]
        ]
      },
      "properties": {
        "nivel": "cuadrante",
        "codigo": "CL_022",
        "ciudad": "CALI",
        "id_ruta": "1",
        "tipo": "PADRE",
        "tipo_cuadrante": "PAP",
        "fillColor": "#BC5090",
        "fillOpacity": 0.35,
        "weight": 2,
        "color": "#000000",
        "ruta_publica": "Ruta 1",
        "old_codigo": "CL_022"
      }
    },
    {
      "type": "Feature",
      "geometry": {
        "type": "Polygon",
        "coordinates": [
          [
            [
              -76.543454,
              3.430896
            ],
            [
              -76.545171,
              3.428251
            ],
            [
              -76.545439,
              3.42838
            ],
            [
              -76.546018,
              3.429258
            ],
            [
              -76.546941,
              3.429247
            ],
            [
              -76.550353,
              3.427116
            ],
            [
              -76.552037,
              3.425927
            ],
            [
              -76.552477,
              3.424653
            ],
            [
              -76.552724,
              3.423748
            ],
            [
              -76.551442,
              3.423384
            ],
            [
              -76.552214,
              3.421215
            ],
            [
              -76.552745,
              3.421322
            ],
            [
              -76.553056,
              3.420829
            ],
            [
              -76.553475,
              3.419351
            ],
            [
              -76.551082,
              3.418634
            ],
            [
              -76.551297,
              3.418163
            ],
            [
              -76.548486,
              3.417177
            ],
            [
              -76.548282,
              3.419898
            ],
            [
              -76.546651,
              3.424364
            ],
            [
              -76.546705,
              3.42477
            ],
            [
              -76.548287,
              3.425081
            ],
            [
              -76.548121,
              3.425965
            ],
            [
              -76.546319,
              3.425734
            ],
            [
              -76.545385,
              3.428005
            ],
            [
              -76.543454,
              3.430896
            ]
          ]
        ]
      },
      "properties": {
        "nivel": "cuadrante",
        "codigo": "CL_023",
        "ciudad": "CALI",
        "id_ruta": "1",
        "tipo": "PADRE",
        "tipo_cuadrante": "PAP",
        "fillColor": "#F46036",
        "fillOpacity": 0.35,
        "weight": 2,
        "color": "#000000",
        "ruta_publica": "Ruta 1",
        "old_codigo": "CL_020"
      }
    },
    {
      "type": "Feature",
      "geometry": {
        "type": "Polygon",
        "coordinates": [
          [
            [
              -76.515355,
              3.412197
            ],
            [
              -76.507845,
              3.4047
            ],
            [
              -76.503907,
              3.408277
            ],
            [
              -76.502545,
              3.409777
            ],
            [
              -76.504315,
              3.411362
            ],
            [
              -76.505302,
              3.41239
            ],
            [
              -76.504653,
              3.412952
            ],
            [
              -76.506209,
              3.413986
            ],
            [
              -76.502094,
              3.417724
            ],
            [
              -76.498618,
              3.413183
            ],
            [
              -76.495056,
              3.41661
            ],
            [
              -76.492975,
              3.417424
            ],
            [
              -76.497846,
              3.422179
            ],
            [
              -76.501837,
              3.425177
            ],
            [
              -76.515355,
              3.412197
            ]
          ]
        ]
      },
      "properties": {
        "nivel": "cuadrante",
        "codigo": "CL_024",
        "ciudad": "CALI",
        "id_ruta": "1",
        "tipo": "PADRE",
        "tipo_cuadrante": "PAP",
        "fillColor": "#BC5090",
        "fillOpacity": 0.35,
        "weight": 2,
        "color": "#000000",
        "ruta_publica": "Ruta 1",
        "old_codigo": "CL_024"
      }
    },
    {
      "type": "Feature",
      "geometry": {
        "type": "Polygon",
        "coordinates": [
          [
            [
              -76.538733,
              3.410109
            ],
            [
              -76.543078,
              3.397975
            ],
            [
              -76.532586,
              3.397889
            ],
            [
              -76.531942,
              3.397867
            ],
            [
              -76.527189,
              3.397268
            ],
            [
              -76.523294,
              3.396657
            ],
            [
              -76.522919,
              3.400256
            ],
            [
              -76.522726,
              3.402023
            ],
            [
              -76.522104,
              3.403597
            ],
            [
              -76.522608,
              3.405482
            ],
            [
              -76.525569,
              3.405932
            ],
            [
              -76.530493,
              3.407592
            ],
            [
              -76.536909,
              3.409659
            ],
            [
              -76.538733,
              3.410109
            ]
          ]
        ]
      },
      "properties": {
        "nivel": "cuadrante",
        "codigo": "CL_025",
        "ciudad": "CALI",
        "id_ruta": "1",
        "tipo": "PADRE",
        "tipo_cuadrante": "PAP",
        "fillColor": "#8E44AD",
        "fillOpacity": 0.35,
        "weight": 2,
        "color": "#000000",
        "ruta_publica": "Ruta 1",
        "old_codigo": "CL_027"
      }
    },
    {
      "type": "Feature",
      "geometry": {
        "type": "Polygon",
        "coordinates": [
          [
            [
              -76.522007,
              3.403244
            ],
            [
              -76.522672,
              3.402087
            ],
            [
              -76.523466,
              3.39474
            ],
            [
              -76.521481,
              3.394515
            ],
            [
              -76.521814,
              3.39066
            ],
            [
              -76.521256,
              3.390874
            ],
            [
              -76.520832,
              3.390949
            ],
            [
              -76.516417,
              3.390269
            ],
            [
              -76.51623,
              3.391002
            ],
            [
              -76.517538,
              3.391243
            ],
            [
              -76.517479,
              3.392095
            ],
            [
              -76.516138,
              3.391179
            ],
            [
              -76.515693,
              3.391784
            ],
            [
              -76.513408,
              3.393707
            ],
            [
              -76.515452,
              3.396347
            ],
            [
              -76.516943,
              3.3976
            ],
            [
              -76.518649,
              3.39911
            ],
            [
              -76.519303,
              3.39971
            ],
            [
              -76.522007,
              3.403244
            ]
          ]
        ]
      },
      "properties": {
        "nivel": "cuadrante",
        "codigo": "CL_026",
        "ciudad": "CALI",
        "id_ruta": "1",
        "tipo": "PADRE",
        "tipo_cuadrante": "PAP",
        "fillColor": "#FFA600",
        "fillOpacity": 0.35,
        "weight": 2,
        "color": "#000000",
        "ruta_publica": "Ruta 1",
        "old_codigo": "CL_025"
      }
    },
    {
      "type": "Feature",
      "geometry": {
        "type": "Polygon",
        "coordinates": [
          [
            [
              -76.522071,
              3.387115
            ],
            [
              -76.522082,
              3.387886
            ],
            [
              -76.519785,
              3.388506
            ],
            [
              -76.518573,
              3.388613
            ],
            [
              -76.516475,
              3.388532
            ],
            [
              -76.514377,
              3.388473
            ],
            [
              -76.513293,
              3.388019
            ],
            [
              -76.513975,
              3.386
            ],
            [
              -76.514061,
              3.383688
            ],
            [
              -76.514347,
              3.37493
            ],
            [
              -76.520269,
              3.374951
            ],
            [
              -76.524475,
              3.374994
            ],
            [
              -76.524276,
              3.386377
            ],
            [
              -76.523638,
              3.386324
            ],
            [
              -76.522849,
              3.386163
            ],
            [
              -76.522039,
              3.386142
            ],
            [
              -76.522071,
              3.387115
            ]
          ]
        ]
      },
      "properties": {
        "nivel": "cuadrante",
        "codigo": "CL_027",
        "ciudad": "CALI",
        "id_ruta": "1",
        "tipo": "PADRE",
        "tipo_cuadrante": "PAP",
        "fillColor": "#00F7F7",
        "fillOpacity": 0.35,
        "weight": 2,
        "color": "#000000",
        "ruta_publica": "Ruta 1",
        "old_codigo": "CL_026"
      }
    },
    {
      "type": "Feature",
      "properties": {
        "nivel": "cuadrante",
        "codigo": "CL_028",
        "ciudad": "CALI",
        "id_ruta": "1",
        "tipo": "PADRE",
        "tipo_cuadrante": "PAP",
        "fillColor": "#E74C3C",
        "fillOpacity": 0.35,
        "weight": 2,
        "color": "#000000",
        "ruta_publica": "Ruta 1"
      },
      "geometry": {
        "type": "Polygon",
        "coordinates": [
          [
            [
              -76.486248,
              3.452219
            ],
            [
              -76.490625,
              3.44408
            ],
            [
              -76.493093,
              3.43865
            ],
            [
              -76.493232,
              3.438329
            ],
            [
              -76.491859,
              3.438147
            ],
            [
              -76.49158,
              3.438265
            ],
            [
              -76.491108,
              3.438907
            ],
            [
              -76.490647,
              3.439186
            ],
            [
              -76.489992,
              3.439368
            ],
            [
              -76.48967,
              3.439496
            ],
            [
              -76.489617,
              3.439764
            ],
            [
              -76.489466,
              3.440257
            ],
            [
              -76.489263,
              3.440481
            ],
            [
              -76.489069,
              3.440621
            ],
            [
              -76.48878,
              3.440921
            ],
            [
              -76.488276,
              3.441113
            ],
            [
              -76.487921,
              3.441242
            ],
            [
              -76.487503,
              3.441627
            ],
            [
              -76.487117,
              3.441756
            ],
            [
              -76.486752,
              3.442045
            ],
            [
              -76.486344,
              3.442302
            ],
            [
              -76.486065,
              3.442506
            ],
            [
              -76.484252,
              3.442945
            ],
            [
              -76.483887,
              3.44619
            ],
            [
              -76.483523,
              3.448514
            ],
            [
              -76.482782,
              3.451277
            ],
            [
              -76.486001,
              3.452251
            ],
            [
              -76.486248,
              3.452219
            ]
          ]
        ]
      }
    },
    {
      "type": "Feature",
      "properties": {
        "nivel": "cuadrante",
        "codigo": "CL_029",
        "ciudad": "CALI",
        "id_ruta": "1",
        "tipo": "PADRE",
        "tipo_cuadrante": "PAP",
        "fillColor": "#BC5090",
        "fillOpacity": 0.35,
        "weight": 2,
        "color": "#000000",
        "ruta_publica": "Ruta 1"
      },
      "geometry": {
        "type": "Polygon",
        "coordinates": [
          [
            [
              -76.501451,
              3.440139
            ],
            [
              -76.490754,
              3.443898
            ],
            [
              -76.493329,
              3.438275
            ],
            [
              -76.491741,
              3.438104
            ],
            [
              -76.49128,
              3.437858
            ],
            [
              -76.490239,
              3.435855
            ],
            [
              -76.49069,
              3.435116
            ],
            [
              -76.4907,
              3.434452
            ],
            [
              -76.490357,
              3.433799
            ],
            [
              -76.49129,
              3.431989
            ],
            [
              -76.491483,
              3.430821
            ],
            [
              -76.491719,
              3.430554
            ],
            [
              -76.493071,
              3.430554
            ],
            [
              -76.49438,
              3.429836
            ],
            [
              -76.494745,
              3.428572
            ],
            [
              -76.495743,
              3.427748
            ],
            [
              -76.496623,
              3.427234
            ],
            [
              -76.498275,
              3.42884
            ],
            [
              -76.495888,
              3.433917
            ],
            [
              -76.500131,
              3.435935
            ],
            [
              -76.501451,
              3.440139
            ]
          ]
        ]
      }
    },
    {
      "type": "Feature",
      "properties": {
        "nivel": "cuadrante",
        "codigo": "CL_030",
        "ciudad": "CALI",
        "id_ruta": "1",
        "tipo": "PADRE",
        "tipo_cuadrante": "PAP",
        "fillColor": "#8E44AD",
        "fillOpacity": 0.35,
        "weight": 2,
        "color": "#000000",
        "ruta_publica": "Ruta 1"
      },
      "geometry": {
        "type": "Polygon",
        "coordinates": [
          [
            [
              -76.515377,
              3.436016
            ],
            [
              -76.511858,
              3.433006
            ],
            [
              -76.509669,
              3.432053
            ],
            [
              -76.508821,
              3.431432
            ],
            [
              -76.507512,
              3.430018
            ],
            [
              -76.50615,
              3.427962
            ],
            [
              -76.505549,
              3.427094
            ],
            [
              -76.502652,
              3.424546
            ],
            [
              -76.500356,
              3.426805
            ],
            [
              -76.498522,
              3.428626
            ],
            [
              -76.495947,
              3.433949
            ],
            [
              -76.500142,
              3.435908
            ],
            [
              -76.501483,
              3.44
            ],
            [
              -76.508328,
              3.437622
            ],
            [
              -76.510463,
              3.436979
            ],
            [
              -76.515377,
              3.436016
            ]
          ]
        ]
      }
    },
    {
      "type": "Feature",
      "properties": {
        "nivel": "cuadrante",
        "codigo": "CL_031",
        "ciudad": "CALI",
        "id_ruta": "1",
        "tipo": "PADRE",
        "tipo_cuadrante": "PAP",
        "fillColor": "#E74C3C",
        "fillOpacity": 0.35,
        "weight": 2,
        "color": "#000000",
        "ruta_publica": "Ruta 1"
      },
      "geometry": {
        "type": "Polygon",
        "coordinates": [
          [
            [
              -76.521159,
              3.419073
            ],
            [
              -76.518043,
              3.419153
            ],
            [
              -76.515768,
              3.419303
            ],
            [
              -76.51403,
              3.419432
            ],
            [
              -76.511123,
              3.41956
            ],
            [
              -76.50799,
              3.419705
            ],
            [
              -76.507802,
              3.419544
            ],
            [
              -76.509975,
              3.417616
            ],
            [
              -76.511863,
              3.416122
            ],
            [
              -76.51211,
              3.416433
            ],
            [
              -76.51292,
              3.416385
            ],
            [
              -76.512946,
              3.416856
            ],
            [
              -76.513397,
              3.416835
            ],
            [
              -76.513376,
              3.415474
            ],
            [
              -76.514717,
              3.415399
            ],
            [
              -76.514475,
              3.41473
            ],
            [
              -76.513896,
              3.414136
            ],
            [
              -76.51639,
              3.411555
            ],
            [
              -76.518418,
              3.409589
            ],
            [
              -76.520816,
              3.407255
            ],
            [
              -76.521653,
              3.406371
            ],
            [
              -76.521986,
              3.406917
            ],
            [
              -76.521787,
              3.409375
            ],
            [
              -76.521449,
              3.412128
            ],
            [
              -76.521331,
              3.41496
            ],
            [
              -76.521315,
              3.417038
            ],
            [
              -76.521159,
              3.419073
            ]
          ]
        ]
      }
    },
    {
      "type": "Feature",
      "properties": {
        "nivel": "cuadrante",
        "codigo": "CL_032",
        "ciudad": "CALI",
        "id_ruta": "1",
        "tipo": "PADRE",
        "tipo_cuadrante": "PAP",
        "fillColor": "#3498DB",
        "fillOpacity": 0.35,
        "weight": 2,
        "color": "#000000",
        "ruta_publica": "Ruta 1"
      },
      "geometry": {
        "type": "Polygon",
        "coordinates": [
          [
            [
              -76.535273,
              3.420594
            ],
            [
              -76.536829,
              3.415839
            ],
            [
              -76.537896,
              3.412428
            ],
            [
              -76.538599,
              3.410264
            ],
            [
              -76.536845,
              3.409713
            ],
            [
              -76.534565,
              3.408958
            ],
            [
              -76.531008,
              3.407822
            ],
            [
              -76.527452,
              3.406655
            ],
            [
              -76.525548,
              3.405991
            ],
            [
              -76.523412,
              3.405654
            ],
            [
              -76.522629,
              3.405643
            ],
            [
              -76.522243,
              3.409873
            ],
            [
              -76.521825,
              3.413718
            ],
            [
              -76.52132,
              3.419255
            ],
            [
              -76.527361,
              3.418227
            ],
            [
              -76.53118,
              3.419384
            ],
            [
              -76.535273,
              3.420594
            ]
          ]
        ]
      }
    },
    {
      "type": "Feature",
      "properties": {
        "nivel": "cuadrante",
        "codigo": "CL_033",
        "ciudad": "CALI",
        "id_ruta": "1",
        "tipo": "PADRE",
        "tipo_cuadrante": "RUTA",
        "fillColor": "#F39C12",
        "fillOpacity": 0.35,
        "weight": 2,
        "color": "#000000",
        "ruta_publica": "Ruta 1"
      },
      "geometry": {
        "type": "Polygon",
        "coordinates": [
          [
            [
              -76.503553,
              3.40847
            ],
            [
              -76.508017,
              3.404358
            ],
            [
              -76.515312,
              3.412112
            ],
            [
              -76.520698,
              3.406778
            ],
            [
              -76.518788,
              3.404872
            ],
            [
              -76.520934,
              3.402773
            ],
            [
              -76.519947,
              3.40123
            ],
            [
              -76.517694,
              3.398917
            ],
            [
              -76.51484,
              3.396389
            ],
            [
              -76.513027,
              3.394087
            ],
            [
              -76.510935,
              3.391366
            ],
            [
              -76.507244,
              3.395061
            ],
            [
              -76.505946,
              3.396111
            ],
            [
              -76.503789,
              3.393883
            ],
            [
              -76.499026,
              3.402912
            ],
            [
              -76.503553,
              3.40847
            ]
          ]
        ]
      }
    },
    {
      "type": "Feature",
      "properties": {
        "nivel": "cuadrante",
        "codigo": "CL_034",
        "ciudad": "CALI",
        "id_ruta": "1",
        "tipo": "PADRE",
        "tipo_cuadrante": "PAP",
        "fillColor": "#FECB52",
        "fillOpacity": 0.35,
        "weight": 2,
        "color": "#000000",
        "ruta_publica": "Ruta 1"
      },
      "geometry": {
        "type": "Polygon",
        "coordinates": [
          [
            [
              -76.538658,
              3.437761
            ],
            [
              -76.541131,
              3.434698
            ],
            [
              -76.542563,
              3.432556
            ],
            [
              -76.542027,
              3.432251
            ],
            [
              -76.541491,
              3.431603
            ],
            [
              -76.539313,
              3.428524
            ],
            [
              -76.538873,
              3.428979
            ],
            [
              -76.537585,
              3.427453
            ],
            [
              -76.53699,
              3.426757
            ],
            [
              -76.535064,
              3.426591
            ],
            [
              -76.533573,
              3.426222
            ],
            [
              -76.533304,
              3.42756
            ],
            [
              -76.532961,
              3.428915
            ],
            [
              -76.532398,
              3.428696
            ],
            [
              -76.530295,
              3.43005
            ],
            [
              -76.5289,
              3.431212
            ],
            [
              -76.52904,
              3.432091
            ],
            [
              -76.532017,
              3.432969
            ],
            [
              -76.534356,
              3.433659
            ],
            [
              -76.535155,
              3.433847
            ],
            [
              -76.536132,
              3.434152
            ],
            [
              -76.535928,
              3.435218
            ],
            [
              -76.538658,
              3.437761
            ]
          ]
        ]
      }
    }
  ]
}