{
  "type": "FeatureCollection",
  "properties": {
    "type": "visible_layers_export",
    "city": "BARRANQUILLA",
    "total_features": 3,
    "export_timestamp": "2025-11-04T19:25:00.710Z",
    "editor_version": "3.1",
    "export_source": "Visible Layers Only"
  },
  "features": [
    {
      "type": "Feature",
      "properties": {
        "nivel": "cuadrante",
        "codigo": "BR_ruta_2701_01",
        "ciudad": "BR",
        "tipo": "PADRE",
        "tipo_cuadrante": "RUTA",
        "id_ruta": 2701,
        "ruta_publica": "BARRANQUILLA 1",
        "fillColor": "#2E91E5",
        "fillOpacity": 0.35,
        "weight": 2,
        "color": "#000000",
        "code": "BR_ruta_2701_01",
        "city": "BR",
        "system": "RUTA",
        "route_id": 2701,
        "route_name": "BARRANQUILLA 1",
        "base_code": "BR_ruta_2701",
        "dup_index": 1
      },
      "geometry": {
        "type": "Polygon",
        "coordinates": [
          [
            [
              -74.795169,
              10.962975
            ],
            [
              -74.798366,
              10.966419
            ],
            [
              -74.799567,
              10.967104
            ],
            [
              -74.800222,
              10.968126
            ],
            [
              -74.801327,
              10.968315
            ],
            [
              -74.80594,
              10.96861
            ],
            [
              -74.811444,
              10.968905
            ],
            [
              -74.812582,
              10.968979
            ],
            [
              -74.812249,
              10.971496
            ],
            [
              -74.813805,
              10.971738
            ],
            [
              -74.813805,
              10.972107
            ],
            [
              -74.813955,
              10.972123
            ],
            [
              -74.813161,
              10.976225
            ],
            [
              -74.814373,
              10.976373
            ],
            [
              -74.815017,
              10.976657
            ],
            [
              -74.815902,
              10.977157
            ],
            [
              -74.819722,
              10.977099
            ],
            [
              -74.819689,
              10.977526
            ],
            [
              -74.820253,
              10.977547
            ],
            [
              -74.819979,
              10.9786
            ],
            [
              -74.819754,
              10.978843
            ],
            [
              -74.819185,
              10.980828
            ],
            [
              -74.819051,
              10.982029
            ],
            [
              -74.819883,
              10.982439
            ],
            [
              -74.818659,
              10.984467
            ],
            [
              -74.818928,
              10.984677
            ],
            [
              -74.818949,
              10.984841
            ],
            [
              -74.820011,
              10.98691
            ],
            [
              -74.819416,
              10.987295
            ],
            [
              -74.818933,
              10.987305
            ],
            [
              -74.818241,
              10.987147
            ],
            [
              -74.816203,
              10.986594
            ],
            [
              -74.816691,
              10.98522
            ],
            [
              -74.816718,
              10.984835
            ],
            [
              -74.816616,
              10.984404
            ],
            [
              -74.81705,
              10.982076
            ],
            [
              -74.817528,
              10.982392
            ],
            [
              -74.81786,
              10.981412
            ],
            [
              -74.817372,
              10.981102
            ],
            [
              -74.816986,
              10.981075
            ],
            [
              -74.816256,
              10.980838
            ],
            [
              -74.815328,
              10.98037
            ],
            [
              -74.815124,
              10.980696
            ],
            [
              -74.813215,
              10.981792
            ],
            [
              -74.81234,
              10.98235
            ],
            [
              -74.812442,
              10.983124
            ],
            [
              -74.813451,
              10.984019
            ],
            [
              -74.813279,
              10.984483
            ],
            [
              -74.812898,
              10.985294
            ],
            [
              -74.812045,
              10.984677
            ],
            [
              -74.811208,
              10.985394
            ],
            [
              -74.81064,
              10.985962
            ],
            [
              -74.80962,
              10.987421
            ],
            [
              -74.809036,
              10.988764
            ],
            [
              -74.80799,
              10.990354
            ],
            [
              -74.807255,
              10.991639
            ],
            [
              -74.804583,
              10.990244
            ],
            [
              -74.802158,
              10.988901
            ],
            [
              -74.798709,
              10.987016
            ],
            [
              -74.79629,
              10.985741
            ],
            [
              -74.795678,
              10.985446
            ],
            [
              -74.795689,
              10.985362
            ],
            [
              -74.793752,
              10.984498
            ],
            [
              -74.792765,
              10.984151
            ],
            [
              -74.792524,
              10.984572
            ],
            [
              -74.790534,
              10.984035
            ],
            [
              -74.790958,
              10.982266
            ],
            [
              -74.789879,
              10.982018
            ],
            [
              -74.786489,
              10.981397
            ],
            [
              -74.787068,
              10.979401
            ],
            [
              -74.790384,
              10.980322
            ],
            [
              -74.791022,
              10.977842
            ],
            [
              -74.788045,
              10.977041
            ],
            [
              -74.790083,
              10.969727
            ],
            [
              -74.796692,
              10.972423
            ],
            [
              -74.792261,
              10.974593
            ],
            [
              -74.792712,
              10.974993
            ],
            [
              -74.792905,
              10.975899
            ],
            [
              -74.794074,
              10.975456
            ],
            [
              -74.796274,
              10.976415
            ],
            [
              -74.797261,
              10.976373
            ],
            [
              -74.797368,
              10.974456
            ],
            [
              -74.797593,
              10.972465
            ],
            [
              -74.796767,
              10.972381
            ],
            [
              -74.793248,
              10.970927
            ],
            [
              -74.790158,
              10.969779
            ],
            [
              -74.792154,
              10.964418
            ],
            [
              -74.795169,
              10.962975
            ]
          ]
        ]
      }
    },
    {
      "type": "Feature",
      "properties": {
        "nivel": "cuadrante",
        "code": "BR_ruta_2701_02",
        "codigo": "BR_ruta_2701_02",
        "city": "BR",
        "ciudad": "BR",
        "tipo": "PADRE",
        "system": "RUTA",
        "route_id": 2701,
        "base_code": "BR_ruta_2701",
        "dup_index": 2,
        "route_name": "BARRANQUILLA 1",
        "id_ruta": 2701,
        "ruta_publica": "BARRANQUILLA 1",
        "fillColor": "#EF553B",
        "fillOpacity": 0.35,
        "weight": 2,
        "color": "#000000"
      },
      "geometry": {
        "type": "Polygon",
        "coordinates": [
          [
            [
              -74.79563,
              11.013003
            ],
            [
              -74.797862,
              11.014582
            ],
            [
              -74.801917,
              11.008411
            ],
            [
              -74.802432,
              11.008558
            ],
            [
              -74.802539,
              11.007295
            ],
            [
              -74.801638,
              11.007105
            ],
            [
              -74.800737,
              11.006263
            ],
            [
              -74.800029,
              11.005336
            ],
            [
              -74.799771,
              11.004788
            ],
            [
              -74.799042,
              11.005357
            ],
            [
              -74.79327,
              10.997416
            ],
            [
              -74.792776,
              10.997016
            ],
            [
              -74.791296,
              10.996995
            ],
            [
              -74.791338,
              10.994235
            ],
            [
              -74.788592,
              10.994109
            ],
            [
              -74.788592,
              10.992993
            ],
            [
              -74.785094,
              10.993877
            ],
            [
              -74.785051,
              10.997058
            ],
            [
              -74.785309,
              10.997395
            ],
            [
              -74.78548,
              10.998743
            ],
            [
              -74.783828,
              10.999312
            ],
            [
              -74.784665,
              11.001776
            ],
            [
              -74.787154,
              11.00384
            ],
            [
              -74.789472,
              11.005862
            ],
            [
              -74.790502,
              11.007758
            ],
            [
              -74.79121,
              11.007231
            ],
            [
              -74.792712,
              11.0082
            ],
            [
              -74.792926,
              11.009464
            ],
            [
              -74.793634,
              11.010054
            ],
            [
              -74.793892,
              11.010749
            ],
            [
              -74.794385,
              11.011086
            ],
            [
              -74.793849,
              11.011591
            ],
            [
              -74.79563,
              11.013003
            ]
          ]
        ]
      }
    },
    {
      "type": "Feature",
      "properties": {
        "nivel": "cuadrante",
        "code": "BR_ruta_648_01",
        "codigo": "BR_ruta_648_01",
        "city": "BR",
        "ciudad": "BR",
        "tipo": "PADRE",
        "system": "RUTA",
        "route_id": 648,
        "base_code": "BR_ruta_648",
        "dup_index": 1,
        "route_name": "BARRANQUILLA 2 - HARISON PEREZ",
        "id_ruta": 648,
        "ruta_publica": "BARRANQUILLA 2 - HARISON PEREZ",
        "fillColor": "#27AE60",
        "fillOpacity": 0.35,
        "weight": 2,
        "color": "#000000"
      },
      "geometry": {
        "type": "Polygon",
        "coordinates": [
          [
            [
              -74.784247,
              10.936178
            ],
            [
              -74.784901,
              10.935725
            ],
            [
              -74.786146,
              10.935103
            ],
            [
              -74.787498,
              10.934176
            ],
            [
              -74.788324,
              10.933723
            ],
            [
              -74.789118,
              10.933944
            ],
            [
              -74.790459,
              10.93366
            ],
            [
              -74.790604,
              10.933707
            ],
            [
              -74.790738,
              10.933871
            ],
            [
              -74.791124,
              10.934924
            ],
            [
              -74.791151,
              10.935161
            ],
            [
              -74.791102,
              10.935493
            ],
            [
              -74.791628,
              10.93582
            ],
            [
              -74.791848,
              10.936078
            ],
            [
              -74.792272,
              10.936109
            ],
            [
              -74.792519,
              10.936351
            ],
            [
              -74.79269,
              10.936388
            ],
            [
              -74.792894,
              10.936351
            ],
            [
              -74.793388,
              10.936341
            ],
            [
              -74.793769,
              10.936104
            ],
            [
              -74.795142,
              10.935646
            ],
            [
              -74.796799,
              10.935119
            ],
            [
              -74.797958,
              10.93544
            ],
            [
              -74.798838,
              10.93553
            ],
            [
              -74.799052,
              10.935577
            ],
            [
              -74.799085,
              10.938327
            ],
            [
              -74.79924,
              10.939712
            ],
            [
              -74.799401,
              10.94174
            ],
            [
              -74.799498,
              10.943414
            ],
            [
              -74.799626,
              10.946306
            ],
            [
              -74.799879,
              10.949619
            ],
            [
              -74.799825,
              10.950409
            ],
            [
              -74.798967,
              10.951546
            ],
            [
              -74.79828,
              10.951999
            ],
            [
              -74.797518,
              10.952705
            ],
            [
              -74.796928,
              10.954348
            ],
            [
              -74.799675,
              10.954843
            ],
            [
              -74.800072,
              10.954949
            ],
            [
              -74.800737,
              10.955812
            ],
            [
              -74.803237,
              10.958583
            ],
            [
              -74.803634,
              10.958941
            ],
            [
              -74.804481,
              10.95913
            ],
            [
              -74.807421,
              10.960647
            ],
            [
              -74.810779,
              10.962575
            ],
            [
              -74.810098,
              10.963602
            ],
            [
              -74.811772,
              10.963791
            ],
            [
              -74.812405,
              10.96387
            ],
            [
              -74.812603,
              10.963781
            ],
            [
              -74.813359,
              10.96396
            ],
            [
              -74.812962,
              10.964418
            ],
            [
              -74.812952,
              10.964592
            ],
            [
              -74.81278,
              10.964823
            ],
            [
              -74.811959,
              10.966999
            ],
            [
              -74.811316,
              10.968884
            ],
            [
              -74.809502,
              10.968752
            ],
            [
              -74.805903,
              10.968615
            ],
            [
              -74.800297,
              10.968126
            ],
            [
              -74.79975,
              10.969
            ],
            [
              -74.798709,
              10.968336
            ],
            [
              -74.795823,
              10.966872
            ],
            [
              -74.795179,
              10.966235
            ],
            [
              -74.793388,
              10.965203
            ],
            [
              -74.792358,
              10.96426
            ],
            [
              -74.790791,
              10.965071
            ],
            [
              -74.790169,
              10.965577
            ],
            [
              -74.789745,
              10.966251
            ],
            [
              -74.789321,
              10.966588
            ],
            [
              -74.788474,
              10.967093
            ],
            [
              -74.788023,
              10.967304
            ],
            [
              -74.78768,
              10.967457
            ],
            [
              -74.787036,
              10.967536
            ],
            [
              -74.786569,
              10.967604
            ],
            [
              -74.786221,
              10.968041
            ],
            [
              -74.784885,
              10.967325
            ],
            [
              -74.782444,
              10.966209
            ],
            [
              -74.784601,
              10.960953
            ],
            [
              -74.786103,
              10.956392
            ],
            [
              -74.786425,
              10.955465
            ],
            [
              -74.786639,
              10.953958
            ],
            [
              -74.786532,
              10.952968
            ],
            [
              -74.785416,
              10.949145
            ],
            [
              -74.783796,
              10.943509
            ],
            [
              -74.782047,
              10.937568
            ],
            [
              -74.783367,
              10.936862
            ],
            [
              -74.784247,
              10.936178
            ]
          ]
        ]
      }
    }
  ]
}