{
  "type": "FeatureCollection",
  "properties": {
    "type": "hierarchy_export",
    "parent_code": "CL_780_01",
    "city": "CALI",
    "route": "780",
    "total_features": 19,
    "export_timestamp": "2025-09-14T17:22:26.238Z",
    "crs": "EPSG:4326",
    "target_crs": "EPSG:3116",
    "validation_passed": true
  },
  "features": [
    {
      "type": "Feature",
      "properties": {
        "nivel": "cuadrante",
        "codigo": "CL_780_01",
        "ciudad": "CALI",
        "id_ruta": "780",
        "ruta": "780",
        "created_at": "2025-09-14T17:22:26.238Z",
        "editor_version": "3.0",
        "total_hijos": 18,
        "fillColor": "#667eea",
        "color": "#000000",
        "weight": 2,
        "fillOpacity": 0.4
      },
      "geometry": {
        "type": "Polygon",
        "coordinates": [
          [
            [
              -76.314619,
              3.505518
            ],
            [
              -76.310241,
              3.500828
            ],
            [
              -76.29595,
              3.499949
            ],
            [
              -76.295629,
              3.514492
            ],
            [
              -76.290393,
              3.514663
            ],
            [
              -76.290135,
              3.517576
            ],
            [
              -76.287003,
              3.517533
            ],
            [
              -76.286445,
              3.515905
            ],
            [
              -76.285243,
              3.516719
            ],
            [
              -76.285243,
              3.519589
            ],
            [
              -76.282711,
              3.519589
            ],
            [
              -76.279879,
              3.516462
            ],
            [
              -76.277518,
              3.517619
            ],
            [
              -76.277733,
              3.520317
            ],
            [
              -76.278334,
              3.522545
            ],
            [
              -76.277947,
              3.524901
            ],
            [
              -76.275158,
              3.524986
            ],
            [
              -76.272326,
              3.527471
            ],
            [
              -76.268077,
              3.528456
            ],
            [
              -76.268678,
              3.530383
            ],
            [
              -76.270909,
              3.530126
            ],
            [
              -76.271596,
              3.53124
            ],
            [
              -76.273613,
              3.532953
            ],
            [
              -76.277132,
              3.532825
            ],
            [
              -76.277046,
              3.536766
            ],
            [
              -76.278162,
              3.537537
            ],
            [
              -76.2749,
              3.539593
            ],
            [
              -76.275115,
              3.54152
            ],
            [
              -76.275201,
              3.543234
            ],
            [
              -76.276746,
              3.543448
            ],
            [
              -76.277046,
              3.54152
            ],
            [
              -76.284428,
              3.540278
            ],
            [
              -76.284513,
              3.544304
            ],
            [
              -76.286831,
              3.545204
            ],
            [
              -76.2852,
              3.550901
            ],
            [
              -76.281166,
              3.553214
            ],
            [
              -76.278934,
              3.553985
            ],
            [
              -76.280007,
              3.55921
            ],
            [
              -76.290779,
              3.560067
            ],
            [
              -76.302538,
              3.561609
            ],
            [
              -76.312923,
              3.558354
            ],
            [
              -76.318803,
              3.555055
            ],
            [
              -76.319318,
              3.553642
            ],
            [
              -76.318717,
              3.538607
            ],
            [
              -76.318116,
              3.531711
            ],
            [
              -76.319275,
              3.528627
            ],
            [
              -76.317558,
              3.524301
            ],
            [
              -76.312537,
              3.520275
            ],
            [
              -76.321936,
              3.517276
            ],
            [
              -76.314619,
              3.505518
            ]
          ]
        ]
      }
    },
    {
      "type": "Feature",
      "properties": {
        "nivel": "subcuadrante",
        "codigo": "CL_780_01_S01",
        "codigo_padre": "CL_780_01",
        "ciudad": "CALI",
        "id_ruta": "780",
        "ruta": "780",
        "orden": 1,
        "created_at": "2025-09-14T17:22:26.238Z",
        "editor_version": "3.0",
        "fillColor": "#11998e",
        "color": "#000000",
        "weight": 2,
        "fillOpacity": 0.6
      },
      "geometry": {
        "type": "Polygon",
        "coordinates": [
          [
            [
              -76.278999,
              3.554081
            ],
            [
              -76.282421,
              3.552785
            ],
            [
              -76.284009,
              3.551875
            ],
            [
              -76.285093,
              3.551318
            ],
            [
              -76.285522,
              3.55013
            ],
            [
              -76.287099,
              3.545097
            ],
            [
              -76.291788,
              3.5453
            ],
            [
              -76.295961,
              3.545504
            ],
            [
              -76.294556,
              3.549241
            ],
            [
              -76.293558,
              3.55195
            ],
            [
              -76.296444,
              3.55346
            ],
            [
              -76.298901,
              3.554027
            ],
            [
              -76.302624,
              3.553513
            ],
            [
              -76.303493,
              3.561245
            ],
            [
              -76.302484,
              3.561545
            ],
            [
              -76.298783,
              3.561084
            ],
            [
              -76.293504,
              3.560356
            ],
            [
              -76.285994,
              3.559639
            ],
            [
              -76.280147,
              3.559167
            ],
            [
              -76.278999,
              3.554081
            ]
          ]
        ]
      }
    },
    {
      "type": "Feature",
      "properties": {
        "nivel": "subcuadrante",
        "codigo": "CL_780_01_S01",
        "codigo_padre": "CL_780_01",
        "ciudad": "CALI",
        "id_ruta": "780",
        "ruta": "780",
        "orden": 2,
        "created_at": "2025-09-14T17:22:26.238Z",
        "editor_version": "3.0",
        "fillColor": "#EF553B",
        "color": "#000000",
        "weight": 2,
        "fillOpacity": 0.6
      },
      "geometry": {
        "type": "Polygon",
        "coordinates": [
          [
            [
              -76.278999,
              3.554081
            ],
            [
              -76.282421,
              3.552785
            ],
            [
              -76.284009,
              3.551875
            ],
            [
              -76.285093,
              3.551318
            ],
            [
              -76.285522,
              3.55013
            ],
            [
              -76.287099,
              3.545097
            ],
            [
              -76.291788,
              3.5453
            ],
            [
              -76.295961,
              3.545504
            ],
            [
              -76.294556,
              3.549241
            ],
            [
              -76.293558,
              3.55195
            ],
            [
              -76.296444,
              3.55346
            ],
            [
              -76.298901,
              3.554027
            ],
            [
              -76.302624,
              3.553513
            ],
            [
              -76.303493,
              3.561245
            ],
            [
              -76.302484,
              3.561545
            ],
            [
              -76.298783,
              3.561084
            ],
            [
              -76.293504,
              3.560356
            ],
            [
              -76.285994,
              3.559639
            ],
            [
              -76.280147,
              3.559167
            ],
            [
              -76.278999,
              3.554081
            ]
          ]
        ]
      }
    },
    {
      "type": "Feature",
      "properties": {
        "nivel": "subcuadrante",
        "codigo": "CL_780_01_S02",
        "codigo_padre": "CL_780_01",
        "ciudad": "CALI",
        "id_ruta": "780",
        "ruta": "780",
        "orden": 3,
        "created_at": "2025-09-14T17:22:26.238Z",
        "editor_version": "3.0",
        "fillColor": "#11998e",
        "color": "#000000",
        "weight": 2,
        "fillOpacity": 0.6
      },
      "geometry": {
        "type": "Polygon",
        "coordinates": [
          [
            [
              -76.302323,
              3.550922
            ],
            [
              -76.302731,
              3.553556
            ],
            [
              -76.308396,
              3.554113
            ],
            [
              -76.308804,
              3.553321
            ],
            [
              -76.313674,
              3.553728
            ],
            [
              -76.319103,
              3.553685
            ],
            [
              -76.318889,
              3.546939
            ],
            [
              -76.318781,
              3.54167
            ],
            [
              -76.315241,
              3.541595
            ],
            [
              -76.313052,
              3.541606
            ],
            [
              -76.312333,
              3.541627
            ],
            [
              -76.311593,
              3.541702
            ],
            [
              -76.31067,
              3.542248
            ],
            [
              -76.308407,
              3.542645
            ],
            [
              -76.30625,
              3.542698
            ],
            [
              -76.304201,
              3.542655
            ],
            [
              -76.302173,
              3.542591
            ],
            [
              -76.296766,
              3.542398
            ],
            [
              -76.296337,
              3.544262
            ],
            [
              -76.295736,
              3.546146
            ],
            [
              -76.293783,
              3.551907
            ],
            [
              -76.302323,
              3.550922
            ]
          ]
        ]
      }
    },
    {
      "type": "Feature",
      "properties": {
        "nivel": "subcuadrante",
        "codigo": "CL_780_01_S02",
        "codigo_padre": "CL_780_01",
        "ciudad": "CALI",
        "id_ruta": "780",
        "ruta": "780",
        "orden": 4,
        "created_at": "2025-09-14T17:22:26.238Z",
        "editor_version": "3.0",
        "fillColor": "#636EFA",
        "color": "#000000",
        "weight": 2,
        "fillOpacity": 0.6
      },
      "geometry": {
        "type": "Polygon",
        "coordinates": [
          [
            [
              -76.302323,
              3.550922
            ],
            [
              -76.302731,
              3.553556
            ],
            [
              -76.308396,
              3.554113
            ],
            [
              -76.308804,
              3.553321
            ],
            [
              -76.313674,
              3.553728
            ],
            [
              -76.319103,
              3.553685
            ],
            [
              -76.318889,
              3.546939
            ],
            [
              -76.318781,
              3.54167
            ],
            [
              -76.315241,
              3.541595
            ],
            [
              -76.313052,
              3.541606
            ],
            [
              -76.312333,
              3.541627
            ],
            [
              -76.311593,
              3.541702
            ],
            [
              -76.31067,
              3.542248
            ],
            [
              -76.308407,
              3.542645
            ],
            [
              -76.30625,
              3.542698
            ],
            [
              -76.304201,
              3.542655
            ],
            [
              -76.302173,
              3.542591
            ],
            [
              -76.296766,
              3.542398
            ],
            [
              -76.296337,
              3.544262
            ],
            [
              -76.295736,
              3.546146
            ],
            [
              -76.293783,
              3.551907
            ],
            [
              -76.302323,
              3.550922
            ]
          ]
        ]
      }
    },
    {
      "type": "Feature",
      "properties": {
        "nivel": "subcuadrante",
        "codigo": "CL_780_01_S03",
        "codigo_padre": "CL_780_01",
        "ciudad": "CALI",
        "id_ruta": "780",
        "ruta": "780",
        "orden": 5,
        "created_at": "2025-09-14T17:22:26.238Z",
        "editor_version": "3.0",
        "fillColor": "#11998e",
        "color": "#000000",
        "weight": 2,
        "fillOpacity": 0.6
      },
      "geometry": {
        "type": "Polygon",
        "coordinates": [
          [
            [
              -76.318696,
              3.541584
            ],
            [
              -76.317966,
              3.531283
            ],
            [
              -76.317987,
              3.529441
            ],
            [
              -76.315091,
              3.529891
            ],
            [
              -76.313696,
              3.530212
            ],
            [
              -76.308181,
              3.529398
            ],
            [
              -76.301465,
              3.528456
            ],
            [
              -76.29889,
              3.528092
            ],
            [
              -76.297431,
              3.537815
            ],
            [
              -76.29683,
              3.542334
            ],
            [
              -76.310155,
              3.542248
            ],
            [
              -76.311936,
              3.541327
            ],
            [
              -76.318696,
              3.541584
            ]
          ]
        ]
      }
    },
    {
      "type": "Feature",
      "properties": {
        "nivel": "subcuadrante",
        "codigo": "CL_780_01_S03",
        "codigo_padre": "CL_780_01",
        "ciudad": "CALI",
        "id_ruta": "780",
        "ruta": "780",
        "orden": 6,
        "created_at": "2025-09-14T17:22:26.238Z",
        "editor_version": "3.0",
        "fillColor": "#AB63FA",
        "color": "#000000",
        "weight": 2,
        "fillOpacity": 0.6
      },
      "geometry": {
        "type": "Polygon",
        "coordinates": [
          [
            [
              -76.318696,
              3.541584
            ],
            [
              -76.317966,
              3.531283
            ],
            [
              -76.317987,
              3.529441
            ],
            [
              -76.315091,
              3.529891
            ],
            [
              -76.313696,
              3.530212
            ],
            [
              -76.308181,
              3.529398
            ],
            [
              -76.301465,
              3.528456
            ],
            [
              -76.29889,
              3.528092
            ],
            [
              -76.297431,
              3.537815
            ],
            [
              -76.29683,
              3.542334
            ],
            [
              -76.310155,
              3.542248
            ],
            [
              -76.311936,
              3.541327
            ],
            [
              -76.318696,
              3.541584
            ]
          ]
        ]
      }
    },
    {
      "type": "Feature",
      "properties": {
        "nivel": "subcuadrante",
        "codigo": "CL_780_01_S04",
        "codigo_padre": "CL_780_01",
        "ciudad": "CALI",
        "id_ruta": "780",
        "ruta": "780",
        "orden": 7,
        "created_at": "2025-09-14T17:22:26.238Z",
        "editor_version": "3.0",
        "fillColor": "#11998e",
        "color": "#000000",
        "weight": 2,
        "fillOpacity": 0.6
      },
      "geometry": {
        "type": "Polygon",
        "coordinates": [
          [
            [
              -76.295907,
              3.54529
            ],
            [
              -76.296937,
              3.538265
            ],
            [
              -76.290908,
              3.537322
            ],
            [
              -76.278312,
              3.537033
            ],
            [
              -76.278216,
              3.537537
            ],
            [
              -76.275984,
              3.5391
            ],
            [
              -76.274933,
              3.539678
            ],
            [
              -76.275297,
              3.54182
            ],
            [
              -76.284374,
              3.539967
            ],
            [
              -76.284664,
              3.539914
            ],
            [
              -76.284857,
              3.544379
            ],
            [
              -76.286305,
              3.544872
            ],
            [
              -76.287142,
              3.545011
            ],
            [
              -76.294996,
              3.545354
            ],
            [
              -76.295907,
              3.54529
            ]
          ]
        ]
      }
    },
    {
      "type": "Feature",
      "properties": {
        "nivel": "subcuadrante",
        "codigo": "CL_780_01_S04",
        "codigo_padre": "CL_780_01",
        "ciudad": "CALI",
        "id_ruta": "780",
        "ruta": "780",
        "orden": 8,
        "created_at": "2025-09-14T17:22:26.238Z",
        "editor_version": "3.0",
        "fillColor": "#FFA15A",
        "color": "#000000",
        "weight": 2,
        "fillOpacity": 0.6
      },
      "geometry": {
        "type": "Polygon",
        "coordinates": [
          [
            [
              -76.295907,
              3.54529
            ],
            [
              -76.296937,
              3.538265
            ],
            [
              -76.290908,
              3.537322
            ],
            [
              -76.278312,
              3.537033
            ],
            [
              -76.278216,
              3.537537
            ],
            [
              -76.275984,
              3.5391
            ],
            [
              -76.274933,
              3.539678
            ],
            [
              -76.275297,
              3.54182
            ],
            [
              -76.284374,
              3.539967
            ],
            [
              -76.284664,
              3.539914
            ],
            [
              -76.284857,
              3.544379
            ],
            [
              -76.286305,
              3.544872
            ],
            [
              -76.287142,
              3.545011
            ],
            [
              -76.294996,
              3.545354
            ],
            [
              -76.295907,
              3.54529
            ]
          ]
        ]
      }
    },
    {
      "type": "Feature",
      "properties": {
        "nivel": "subcuadrante",
        "codigo": "CL_780_01_S05",
        "codigo_padre": "CL_780_01",
        "ciudad": "CALI",
        "id_ruta": "780",
        "ruta": "780",
        "orden": 9,
        "created_at": "2025-09-14T17:22:26.238Z",
        "editor_version": "3.0",
        "fillColor": "#11998e",
        "color": "#000000",
        "weight": 2,
        "fillOpacity": 0.6
      },
      "geometry": {
        "type": "Polygon",
        "coordinates": [
          [
            [
              -76.290468,
              3.53728
            ],
            [
              -76.290221,
              3.526914
            ],
            [
              -76.278205,
              3.524965
            ],
            [
              -76.278055,
              3.525286
            ],
            [
              -76.275051,
              3.525243
            ],
            [
              -76.272562,
              3.527492
            ],
            [
              -76.270652,
              3.528049
            ],
            [
              -76.271253,
              3.530683
            ],
            [
              -76.273828,
              3.532868
            ],
            [
              -76.277475,
              3.532739
            ],
            [
              -76.27769,
              3.536466
            ],
            [
              -76.277937,
              3.536948
            ],
            [
              -76.290468,
              3.53728
            ]
          ]
        ]
      }
    },
    {
      "type": "Feature",
      "properties": {
        "nivel": "subcuadrante",
        "codigo": "CL_780_01_S05",
        "codigo_padre": "CL_780_01",
        "ciudad": "CALI",
        "id_ruta": "780",
        "ruta": "780",
        "orden": 10,
        "created_at": "2025-09-14T17:22:26.238Z",
        "editor_version": "3.0",
        "fillColor": "#FF6692",
        "color": "#000000",
        "weight": 2,
        "fillOpacity": 0.6
      },
      "geometry": {
        "type": "Polygon",
        "coordinates": [
          [
            [
              -76.290468,
              3.53728
            ],
            [
              -76.290221,
              3.526914
            ],
            [
              -76.278205,
              3.524965
            ],
            [
              -76.278055,
              3.525286
            ],
            [
              -76.275051,
              3.525243
            ],
            [
              -76.272562,
              3.527492
            ],
            [
              -76.270652,
              3.528049
            ],
            [
              -76.271253,
              3.530683
            ],
            [
              -76.273828,
              3.532868
            ],
            [
              -76.277475,
              3.532739
            ],
            [
              -76.27769,
              3.536466
            ],
            [
              -76.277937,
              3.536948
            ],
            [
              -76.290468,
              3.53728
            ]
          ]
        ]
      }
    },
    {
      "type": "Feature",
      "properties": {
        "nivel": "subcuadrante",
        "codigo": "CL_780_01_S06",
        "codigo_padre": "CL_780_01",
        "ciudad": "CALI",
        "id_ruta": "780",
        "ruta": "780",
        "orden": 11,
        "created_at": "2025-09-14T17:22:26.238Z",
        "editor_version": "3.0",
        "fillColor": "#11998e",
        "color": "#000000",
        "weight": 2,
        "fillOpacity": 0.6
      },
      "geometry": {
        "type": "Polygon",
        "coordinates": [
          [
            [
              -76.296186,
              3.500035
            ],
            [
              -76.310225,
              3.500908
            ],
            [
              -76.314586,
              3.505604
            ],
            [
              -76.307838,
              3.50948
            ],
            [
              -76.307173,
              3.50963
            ],
            [
              -76.306722,
              3.511065
            ],
            [
              -76.305285,
              3.51522
            ],
            [
              -76.295655,
              3.514728
            ],
            [
              -76.296186,
              3.500035
            ]
          ]
        ]
      }
    },
    {
      "type": "Feature",
      "properties": {
        "nivel": "subcuadrante",
        "codigo": "CL_780_01_S06",
        "codigo_padre": "CL_780_01",
        "ciudad": "CALI",
        "id_ruta": "780",
        "ruta": "780",
        "orden": 12,
        "created_at": "2025-09-14T17:22:26.238Z",
        "editor_version": "3.0",
        "fillColor": "#FECB52",
        "color": "#000000",
        "weight": 2,
        "fillOpacity": 0.6
      },
      "geometry": {
        "type": "Polygon",
        "coordinates": [
          [
            [
              -76.296186,
              3.500035
            ],
            [
              -76.310225,
              3.500908
            ],
            [
              -76.314586,
              3.505604
            ],
            [
              -76.307838,
              3.50948
            ],
            [
              -76.307173,
              3.50963
            ],
            [
              -76.306722,
              3.511065
            ],
            [
              -76.305285,
              3.51522
            ],
            [
              -76.295655,
              3.514728
            ],
            [
              -76.296186,
              3.500035
            ]
          ]
        ]
      }
    },
    {
      "type": "Feature",
      "properties": {
        "nivel": "subcuadrante",
        "codigo": "CL_780_01_S07",
        "codigo_padre": "CL_780_01",
        "ciudad": "CALI",
        "id_ruta": "780",
        "ruta": "780",
        "orden": 13,
        "created_at": "2025-09-14T17:22:26.238Z",
        "editor_version": "3.0",
        "fillColor": "#11998e",
        "color": "#000000",
        "weight": 2,
        "fillOpacity": 0.6
      },
      "geometry": {
        "type": "Polygon",
        "coordinates": [
          [
            [
              -76.290436,
              3.514877
            ],
            [
              -76.305928,
              3.515306
            ],
            [
              -76.304276,
              3.52867
            ],
            [
              -76.298676,
              3.528006
            ],
            [
              -76.297088,
              3.537879
            ],
            [
              -76.290736,
              3.536916
            ],
            [
              -76.290457,
              3.526807
            ],
            [
              -76.290436,
              3.514877
            ]
          ]
        ]
      }
    },
    {
      "type": "Feature",
      "properties": {
        "nivel": "subcuadrante",
        "codigo": "CL_780_01_S07",
        "codigo_padre": "CL_780_01",
        "ciudad": "CALI",
        "id_ruta": "780",
        "ruta": "780",
        "orden": 14,
        "created_at": "2025-09-14T17:22:26.238Z",
        "editor_version": "3.0",
        "fillColor": "#19D3F3",
        "color": "#000000",
        "weight": 2,
        "fillOpacity": 0.6
      },
      "geometry": {
        "type": "Polygon",
        "coordinates": [
          [
            [
              -76.290436,
              3.514877
            ],
            [
              -76.305928,
              3.515306
            ],
            [
              -76.304276,
              3.52867
            ],
            [
              -76.298676,
              3.528006
            ],
            [
              -76.297088,
              3.537879
            ],
            [
              -76.290736,
              3.536916
            ],
            [
              -76.290457,
              3.526807
            ],
            [
              -76.290436,
              3.514877
            ]
          ]
        ]
      }
    },
    {
      "type": "Feature",
      "properties": {
        "nivel": "subcuadrante",
        "codigo": "CL_780_01_S08",
        "codigo_padre": "CL_780_01",
        "ciudad": "CALI",
        "id_ruta": "780",
        "ruta": "780",
        "orden": 15,
        "created_at": "2025-09-14T17:22:26.238Z",
        "editor_version": "3.0",
        "fillColor": "#11998e",
        "color": "#000000",
        "weight": 2,
        "fillOpacity": 0.6
      },
      "geometry": {
        "type": "Polygon",
        "coordinates": [
          [
            [
              -76.290393,
              3.517587
            ],
            [
              -76.290296,
              3.526743
            ],
            [
              -76.286016,
              3.526196
            ],
            [
              -76.286412,
              3.525147
            ],
            [
              -76.280426,
              3.523123
            ],
            [
              -76.27799,
              3.520949
            ],
            [
              -76.277744,
              3.517576
            ],
            [
              -76.280018,
              3.516666
            ],
            [
              -76.2827,
              3.519632
            ],
            [
              -76.285307,
              3.519632
            ],
            [
              -76.285275,
              3.516751
            ],
            [
              -76.286412,
              3.516023
            ],
            [
              -76.286986,
              3.517603
            ],
            [
              -76.290269,
              3.517608
            ],
            [
              -76.290393,
              3.517587
            ]
          ]
        ]
      }
    },
    {
      "type": "Feature",
      "properties": {
        "nivel": "subcuadrante",
        "codigo": "CL_780_01_S08",
        "codigo_padre": "CL_780_01",
        "ciudad": "CALI",
        "id_ruta": "780",
        "ruta": "780",
        "orden": 16,
        "created_at": "2025-09-14T17:22:26.238Z",
        "editor_version": "3.0",
        "fillColor": "#B6E880",
        "color": "#000000",
        "weight": 2,
        "fillOpacity": 0.6
      },
      "geometry": {
        "type": "Polygon",
        "coordinates": [
          [
            [
              -76.290393,
              3.517587
            ],
            [
              -76.290296,
              3.526743
            ],
            [
              -76.286016,
              3.526196
            ],
            [
              -76.286412,
              3.525147
            ],
            [
              -76.280426,
              3.523123
            ],
            [
              -76.27799,
              3.520949
            ],
            [
              -76.277744,
              3.517576
            ],
            [
              -76.280018,
              3.516666
            ],
            [
              -76.2827,
              3.519632
            ],
            [
              -76.285307,
              3.519632
            ],
            [
              -76.285275,
              3.516751
            ],
            [
              -76.286412,
              3.516023
            ],
            [
              -76.286986,
              3.517603
            ],
            [
              -76.290269,
              3.517608
            ],
            [
              -76.290393,
              3.517587
            ]
          ]
        ]
      }
    },
    {
      "type": "Feature",
      "properties": {
        "nivel": "subcuadrante",
        "codigo": "CL_780_01_S09",
        "codigo_padre": "CL_780_01",
        "ciudad": "CALI",
        "id_ruta": "780",
        "ruta": "780",
        "orden": 17,
        "created_at": "2025-09-14T17:22:26.238Z",
        "editor_version": "3.0",
        "fillColor": "#11998e",
        "color": "#000000",
        "weight": 2,
        "fillOpacity": 0.6
      },
      "geometry": {
        "type": "Polygon",
        "coordinates": [
          [
            [
              -76.31229,
              3.52051
            ],
            [
              -76.312408,
              3.525136
            ],
            [
              -76.306293,
              3.525158
            ],
            [
              -76.30625,
              3.522523
            ],
            [
              -76.305091,
              3.522438
            ],
            [
              -76.306057,
              3.515798
            ],
            [
              -76.307945,
              3.516291
            ],
            [
              -76.308911,
              3.517019
            ],
            [
              -76.30964,
              3.519075
            ],
            [
              -76.31229,
              3.52051
            ]
          ]
        ]
      }
    },
    {
      "type": "Feature",
      "properties": {
        "nivel": "subcuadrante",
        "codigo": "CL_780_01_S09",
        "codigo_padre": "CL_780_01",
        "ciudad": "CALI",
        "id_ruta": "780",
        "ruta": "780",
        "orden": 18,
        "created_at": "2025-09-14T17:22:26.238Z",
        "editor_version": "3.0",
        "fillColor": "#FF97FF",
        "color": "#000000",
        "weight": 2,
        "fillOpacity": 0.6
      },
      "geometry": {
        "type": "Polygon",
        "coordinates": [
          [
            [
              -76.31229,
              3.52051
            ],
            [
              -76.312408,
              3.525136
            ],
            [
              -76.306293,
              3.525158
            ],
            [
              -76.30625,
              3.522523
            ],
            [
              -76.305091,
              3.522438
            ],
            [
              -76.306057,
              3.515798
            ],
            [
              -76.307945,
              3.516291
            ],
            [
              -76.308911,
              3.517019
            ],
            [
              -76.30964,
              3.519075
            ],
            [
              -76.31229,
              3.52051
            ]
          ]
        ]
      }
    }
  ]
}